start=new Date('2023-04-12T00:00:00.000Z').valueOf();
sats=[{"ARG_OF_PERICENTER":"87.5370","OBJECT_ID":"2022-125P","GP_ID":"229948670","CENTER_NAME":"EARTH","BSTAR":"0.00011815000000","NORAD_CAT_ID":"53977","EPHEMERIS_TYPE":"0","MEAN_ELEMENT_THEORY":"SGP4","REV_AT_EPOCH":"2894","MEAN_MOTION_DDOT":"0.0000000000000","OBJECT_TYPE":"PAYLOAD","APOAPSIS":"540.653","MEAN_MOTION_DOT":"0.00001593","SEMIMAJOR_AXIS":"6917.878","SITE":"AFWTR","CLASSIFICATION_TYPE":"U","TLE_LINE1":"1 53977U 22125P   23101.88723466  .00001593  00000-0  11815-3 0  9991","MEAN_MOTION":"15.08840641","FILE":"3885919","PERIOD":"95.438","ECCENTRICITY":"0.00013150","LAUNCH_DATE":"2022-10-05","DECAY_DATE":null,"TLE_LINE2":"2 53977  53.2167 310.3376 0001315  87.5370 272.5773 15.08840641 28943","COUNTRY_CODE":"US","PERIAPSIS":"538.834","REF_FRAME":"TEME","OBJECT_NAME":"STARLINK-5094","EPOCH":"2023-04-11T21:17:37.074624","MEAN_ANOMALY":"272.5773","TIME_SYSTEM":"UTC","RA_OF_ASC_NODE":"310.3376","ELEMENT_SET_NO":"999","INCLINATION":"53.2167","RCS_SIZE":"LARGE"},{"REF_FRAME":"TEME","OBJECT_NAME":"STARLINK-5148","PERIAPSIS":"539.044","TLE_LINE2":"2 53978  53.2164 310.2082 0001030  74.2951 285.8155 15.08836192 28943","COUNTRY_CODE":"US","RCS_SIZE":"LARGE","ELEMENT_SET_NO":"999","INCLINATION":"53.2164","EPOCH":"2023-04-11T20:47:09.604032","TIME_SYSTEM":"UTC","RA_OF_ASC_NODE":"310.2082","MEAN_ANOMALY":"285.8155","TLE_LINE1":"1 53978U 22125Q   23101.86608338 -.00001180  00000-0 -56076-4 0  9993","FILE":"3885919","MEAN_MOTION":"15.08836192","CLASSIFICATION_TYPE":"U","SITE":"AFWTR","ECCENTRICITY":"0.00010300","LAUNCH_DATE":"2022-10-05","DECAY_DATE":null,"PERIOD":"95.438","OBJECT_TYPE":"PAYLOAD","APOAPSIS":"540.470","MEAN_MOTION_DDOT":"0.0000000000000","SEMIMAJOR_AXIS":"6917.892","MEAN_MOTION_DOT":"-0.00001180","BSTAR":"-0.00005607600000","CENTER_NAME":"EARTH","GP_ID":"229947435","ARG_OF_PERICENTER":"74.2951","OBJECT_ID":"2022-125Q","REV_AT_EPOCH":"2894","EPHEMERIS_TYPE":"0","MEAN_ELEMENT_THEORY":"SGP4","NORAD_CAT_ID":"53978"},{"SITE":"AFWTR","CLASSIFICATION_TYPE":"U","FILE":"3885919","MEAN_MOTION":"15.08838141","TLE_LINE1":"1 53979U 22125R   23101.87617777  .00000197  00000-0  30443-4 0  9997","PERIOD":"95.438","DECAY_DATE":null,"LAUNCH_DATE":"2022-10-05","ECCENTRICITY":"0.00008400","TLE_LINE2":"2 53979  53.2160 310.2730 0000840  89.1078 271.0010 15.08838141 28946","COUNTRY_CODE":"US","PERIAPSIS":"539.170","OBJECT_NAME":"STARLINK-5123","REF_FRAME":"TEME","RA_OF_ASC_NODE":"310.2730","TIME_SYSTEM":"UTC","MEAN_ANOMALY":"271.0010","EPOCH":"2023-04-11T21:01:41.759328","INCLINATION":"53.2160","ELEMENT_SET_NO":"999","RCS_SIZE":"LARGE","OBJECT_ID":"2022-125R","ARG_OF_PERICENTER":"89.1078","GP_ID":"229947685","CENTER_NAME":"EARTH","BSTAR":"0.00003044300000","NORAD_CAT_ID":"53979","MEAN_ELEMENT_THEORY":"SGP4","EPHEMERIS_TYPE":"0","REV_AT_EPOCH":"2894","MEAN_MOTION_DDOT":"0.0000000000000","APOAPSIS":"540.332","OBJECT_TYPE":"PAYLOAD","MEAN_MOTION_DOT":"0.00000197","SEMIMAJOR_AXIS":"6917.886"},{"SITE":"AFWTR","FILE":"3885919","MEAN_MOTION":"15.08840221","TLE_LINE1":"1 53980U 22125S   23101.85038725 -.00000511  00000-0 -14046-4 0  9990","CLASSIFICATION_TYPE":"U","PERIOD":"95.438","DECAY_DATE":null,"LAUNCH_DATE":"2022-10-05","ECCENTRICITY":"0.00009690","PERIAPSIS":"539.074","TLE_LINE2":"2 53980  53.2171 310.1107 0000969  93.3765 266.7338 15.08840221 28945","COUNTRY_CODE":"US","OBJECT_NAME":"STARLINK-5133","REF_FRAME":"TEME","RA_OF_ASC_NODE":"310.1107","TIME_SYSTEM":"UTC","MEAN_ANOMALY":"266.7338","EPOCH":"2023-04-11T20:24:33.458400","RCS_SIZE":"LARGE","INCLINATION":"53.2171","ELEMENT_SET_NO":"999","GP_ID":"229948936","OBJECT_ID":"2022-125S","ARG_OF_PERICENTER":"93.3765","BSTAR":"-0.00001404600000","CENTER_NAME":"EARTH","MEAN_ELEMENT_THEORY":"SGP4","EPHEMERIS_TYPE":"0","NORAD_CAT_ID":"53980","REV_AT_EPOCH":"2894","MEAN_MOTION_DDOT":"0.0000000000000","APOAPSIS":"540.415","OBJECT_TYPE":"PAYLOAD","MEAN_MOTION_DOT":"-0.00000511","SEMIMAJOR_AXIS":"6917.880"},{"PERIOD":"95.438","ECCENTRICITY":"0.00010150","LAUNCH_DATE":"2022-10-05","DECAY_DATE":null,"SITE":"AFWTR","CLASSIFICATION_TYPE":"U","TLE_LINE1":"1 53981U 22125T   23101.58497404  .00000459  00000-0  46947-4 0  9998","FILE":"3885783","MEAN_MOTION":"15.08838650","EPOCH":"2023-04-11T14:02:21.757056","TIME_SYSTEM":"UTC","MEAN_ANOMALY":"262.8868","RA_OF_ASC_NODE":"296.3584","ELEMENT_SET_NO":"999","INCLINATION":"53.2152","RCS_SIZE":"LARGE","TLE_LINE2":"2 53981  53.2152 296.3584 0001015  97.2240 262.8868 15.08838650 29111","COUNTRY_CODE":"US","PERIAPSIS":"539.047","REF_FRAME":"TEME","OBJECT_NAME":"STARLINK-5149","NORAD_CAT_ID":"53981","EPHEMERIS_TYPE":"0","MEAN_ELEMENT_THEORY":"SGP4","REV_AT_EPOCH":"2911","ARG_OF_PERICENTER":"97.2240","OBJECT_ID":"2022-125T","GP_ID":"229919577","CENTER_NAME":"EARTH","BSTAR":"0.00004694700000","MEAN_MOTION_DOT":"0.00000459","SEMIMAJOR_AXIS":"6917.885","MEAN_MOTION_DDOT":"0.0000000000000","OBJECT_TYPE":"PAYLOAD","APOAPSIS":"540.452"},{"MEAN_MOTION_DDOT":"0.0000000000000","OBJECT_TYPE":"PAYLOAD","APOAPSIS":"540.434","MEAN_MOTION_DOT":"0.00006390","SEMIMAJOR_AXIS":"6917.861","GP_ID":"229918326","ARG_OF_PERICENTER":"100.8925","OBJECT_ID":"2022-125U","BSTAR":"0.00041910000000","CENTER_NAME":"EARTH","EPHEMERIS_TYPE":"0","MEAN_ELEMENT_THEORY":"SGP4","NORAD_CAT_ID":"53982","REV_AT_EPOCH":"2887","PERIAPSIS":"539.018","TLE_LINE2":"2 53982  53.2147 309.1649 0001023 100.8925 259.2183 15.08846314 28879","COUNTRY_CODE":"US","REF_FRAME":"TEME","OBJECT_NAME":"STARLINK-5120","EPOCH":"2023-04-11T00:24:59.821056","RA_OF_ASC_NODE":"309.1649","MEAN_ANOMALY":"259.2183","TIME_SYSTEM":"UTC","RCS_SIZE":"LARGE","ELEMENT_SET_NO":"999","INCLINATION":"53.2147","SITE":"AFWTR","TLE_LINE1":"1 53982U 22125U   23101.01735904  .00006390  00000-0  41910-3 0  9991","MEAN_MOTION":"15.08846314","FILE":"3885783","CLASSIFICATION_TYPE":"U","PERIOD":"95.437","ECCENTRICITY":"0.00010230","DECAY_DATE":null,"LAUNCH_DATE":"2022-10-05"},{"TLE_LINE1":"1 53983U 22125V   23101.85729596  .00000584  00000-0  54765-4 0  9996","MEAN_MOTION":"15.08844774","FILE":"3885919","CLASSIFICATION_TYPE":"U","SITE":"AFWTR","ECCENTRICITY":"0.00008650","DECAY_DATE":null,"LAUNCH_DATE":"2022-10-05","PERIOD":"95.437","REF_FRAME":"TEME","OBJECT_NAME":"STARLINK-5103","PERIAPSIS":"539.132","TLE_LINE2":"2 53983  53.2168 295.1955 0000865  88.7085 271.4007 15.08844774 29152","COUNTRY_CODE":"US","RCS_SIZE":"LARGE","ELEMENT_SET_NO":"999","INCLINATION":"53.2168","EPOCH":"2023-04-11T20:34:30.370944","MEAN_ANOMALY":"271.4007","RA_OF_ASC_NODE":"295.1955","TIME_SYSTEM":"UTC","BSTAR":"0.00005476500000","CENTER_NAME":"EARTH","GP_ID":"229948185","ARG_OF_PERICENTER":"88.7085","OBJECT_ID":"2022-125V","REV_AT_EPOCH":"2915","MEAN_ELEMENT_THEORY":"SGP4","EPHEMERIS_TYPE":"0","NORAD_CAT_ID":"53983","OBJECT_TYPE":"PAYLOAD","APOAPSIS":"540.329","MEAN_MOTION_DDOT":"0.0000000000000","SEMIMAJOR_AXIS":"6917.866","MEAN_MOTION_DOT":"0.00000584"},{"NORAD_CAT_ID":"53984","MEAN_ELEMENT_THEORY":"SGP4","EPHEMERIS_TYPE":"0","REV_AT_EPOCH":"2901","ARG_OF_PERICENTER":"79.1244","OBJECT_ID":"2022-125W","GP_ID":"229948437","CENTER_NAME":"EARTH","BSTAR":"0.00000739560000","MEAN_MOTION_DOT":"-0.00000170","SEMIMAJOR_AXIS":"6917.888","MEAN_MOTION_DDOT":"0.0000000000000","APOAPSIS":"540.584","OBJECT_TYPE":"PAYLOAD","PERIOD":"95.438","LAUNCH_DATE":"2022-10-05","DECAY_DATE":null,"ECCENTRICITY":"0.00012010","SITE":"AFWTR","CLASSIFICATION_TYPE":"U","FILE":"3885919","MEAN_MOTION":"15.08837551","TLE_LINE1":"1 53984U 22125W   23101.88954116 -.00000170  00000-0  73956-5 0  9994","TIME_SYSTEM":"UTC","RA_OF_ASC_NODE":"305.3709","MEAN_ANOMALY":"280.9883","EPOCH":"2023-04-11T21:20:56.356224","INCLINATION":"53.2153","ELEMENT_SET_NO":"999","RCS_SIZE":"LARGE","COUNTRY_CODE":"US","TLE_LINE2":"2 53984  53.2153 305.3709 0001201  79.1244 280.9883 15.08837551 29011","PERIAPSIS":"538.922","OBJECT_NAME":"STARLINK-5142","REF_FRAME":"TEME"},{"CENTER_NAME":"EARTH","BSTAR":"0.00003528800000","ARG_OF_PERICENTER":"81.1480","OBJECT_ID":"2022-125X","GP_ID":"229919078","REV_AT_EPOCH":"2896","NORAD_CAT_ID":"53985","MEAN_ELEMENT_THEORY":"SGP4","EPHEMERIS_TYPE":"0","APOAPSIS":"540.693","OBJECT_TYPE":"PAYLOAD","MEAN_MOTION_DDOT":"0.0000000000000","SEMIMAJOR_AXIS":"6917.874","MEAN_MOTION_DOT":"0.00000274","CLASSIFICATION_TYPE":"U","FILE":"3885783","MEAN_MOTION":"15.08842013","TLE_LINE1":"1 53985U 22125X   23101.56570891  .00000274  00000-0  35288-4 0  9993","SITE":"AFWTR","LAUNCH_DATE":"2022-10-05","DECAY_DATE":null,"ECCENTRICITY":"0.00013790","PERIOD":"95.437","OBJECT_NAME":"STARLINK-5147","REF_FRAME":"TEME","TLE_LINE2":"2 53985  53.2165 306.9012 0001379  81.1480 278.9668 15.08842013 28960","COUNTRY_CODE":"US","PERIAPSIS":"538.785","INCLINATION":"53.2165","ELEMENT_SET_NO":"999","RCS_SIZE":"LARGE","TIME_SYSTEM":"UTC","RA_OF_ASC_NODE":"306.9012","MEAN_ANOMALY":"278.9668","EPOCH":"2023-04-11T13:34:37.249824"},{"GP_ID":"229917827","ARG_OF_PERICENTER":"96.2255","OBJECT_ID":"2022-125Y","BSTAR":"0.00001601800000","CENTER_NAME":"EARTH","MEAN_ELEMENT_THEORY":"SGP4","EPHEMERIS_TYPE":"0","NORAD_CAT_ID":"53986","REV_AT_EPOCH":"2910","MEAN_MOTION_DDOT":"0.0000000000000","OBJECT_TYPE":"PAYLOAD","APOAPSIS":"540.495","MEAN_MOTION_DOT":"-0.00000033","SEMIMAJOR_AXIS":"6917.902","SITE":"AFWTR","TLE_LINE1":"1 53986U 22125Y   23101.57760686 -.00000033  00000-0  16018-4 0  9992","FILE":"3885783","MEAN_MOTION":"15.08832928","CLASSIFICATION_TYPE":"U","PERIOD":"95.438","ECCENTRICITY":"0.00010520","LAUNCH_DATE":"2022-10-05","DECAY_DATE":null,"PERIAPSIS":"539.039","TLE_LINE2":"2 53986  53.2153 296.2978 0001052  96.2255 263.8857 15.08832928 29109","COUNTRY_CODE":"US","REF_FRAME":"TEME","OBJECT_NAME":"STARLINK-5119","EPOCH":"2023-04-11T13:51:45.232704","TIME_SYSTEM":"UTC","RA_OF_ASC_NODE":"296.2978","MEAN_ANOMALY":"263.8857","RCS_SIZE":"LARGE","ELEMENT_SET_NO":"999","INCLINATION":"53.2153"}];
